APRIZESAT 2             
1 28366U 04025A   26204.39684432  .00000207  00000+0  76955-4 0  9993
2 28366  98.1051   8.3335 0106426 140.2707 220.6338 14.38050651156844
SAUDICOMSAT 1           
1 28369U 04025D   26204.45137828  .00000273  00000+0  73722-4 0  9997
2 28369  98.5781 215.5632 0030839 272.5964  87.1702 14.55497751169403
SAUDICOMSAT 2           
1 28370U 04025E   26204.83650206  .00000246  00000+0  74659-4 0  9991
2 28370  98.6645 218.1192 0056178 147.6789 212.7866 14.49997943165411
APRIZESAT 1             
1 28372U 04025G   26204.47811049  .00000224  00000+0  67077-4 0  9999
2 28372  98.6312 216.1924 0045465  46.1049 314.3885 14.51795571167175
NANOSAT-1               
1 28493U 04049B   26204.80805535  .00000867  00000+0  12128-3 0  9998
2 28493  98.2320 342.3751 0004404 158.1693 201.9706 14.80223298160867
SAUDICOMSAT 7           
1 31119U 07012C   26204.89827838  .00000595  00000+0  11521-3 0  9993
2 31119  98.3806 179.7869 0057015  81.6350 279.1312 14.66144432 27817
SAUDICOMSAT 6           
1 31121U 07012E   26204.89644926  .00000346  00000+0  76003-4 0  9992
2 31121  98.4125 173.1026 0070946 211.6622 148.0302 14.62589820 25555
SAUDICOMSAT 5           
1 31124U 07012H   26204.88839744  .00000674  00000+0  12434-3 0  9999
2 31124  98.3517 180.5169 0047658  11.8320 348.3992 14.68201381 28980
SAUDICOMSAT 3           
1 31125U 07012J   26204.17291221  .00000646  00000+0  11370-3 0  9991
2 31125  98.3172 180.3325 0037841 299.3530  60.3898 14.70758420 30117
SAUDICOMSAT 4           
1 31127U 07012L   26204.16049593  .00000405  00000+0  83884-4 0  9998
2 31127  98.4011 177.4700 0064079 145.0291 215.5145 14.64540810 26557
APRIZESAT 4             
1 35684U 09041D   26204.19770737  .00000666  00000+0  85909-4 0  9997
2 35684  98.1397 280.2340 0042754 203.1140 156.8151 14.83922373916709
APRIZESAT 3             
1 35686U 09041F   26204.34395220  .00000488  00000+0  47569-4 0  9998
2 35686  98.2106 359.3115 0060651 308.5143  51.0647 14.96320960921785
S-NET D                 
1 43186U 18014G   26204.61267444  .00005127  00000+0  26297-3 0  9997
2 43186  97.5321 109.1769 0006320 247.5771 112.4793 15.16974247464285
S-NET B                 
1 43187U 18014H   26204.69081169  .00005015  00000+0  25750-3 0  9993
2 43187  97.5326 109.2421 0007001 241.9587 118.0939 15.16943909464293
S-NET A                 
1 43188U 18014J   26204.61135223  .00005098  00000+0  26142-3 0  9994
2 43188  97.5336 109.3789 0006876 243.0030 117.0501 15.16982496464285
S-NET C                 
1 43189U 18014K   26204.62892419  .00004827  00000+0  24802-3 0  9993
2 43189  97.5354 109.4768 0008354 235.1028 124.9420 15.16933819462837
SALSAT                  
1 46495U 20068K   26204.44213958  .00007378  00000+0  25456-3 0  9993
2 46495  97.8868 209.7289 0010091 164.5021 195.6529 15.30258663320903
OOV-CUBE (TUBSAT-30)    
1 60240U 24128F   26204.18460515  .00001732  00000+0  14199-3 0  9992
2 60240  61.9942 100.0399 0040077 141.8645 218.5295 15.02898344111520
LPNTSAT-001 (IOD-1)     
1 68408U 26065A   26204.58042433  .00002162  00000+0  10722-3 0  9993
2 68408  97.3969  84.3145 0014884 234.0629 125.9225 15.18698548 17781
CHUANG XIN 26 (CX-26)   
1 69972U 26158A   26204.47169508 -.00000188  00000+0 -11698-4 0  9996
2 69972  49.9824 245.4887 0004923 328.1437  31.9178 14.25116310  1885
